ONEWEB-0415             
1 51624U 22012C   24345.49416670 -.00000200  00000+0 -61053-3 0  9991
2 51624  87.8893 146.5512 0001223 104.7832 255.3430 13.10371784136771
ONEWEB-0416             
1 51625U 22012D   24345.50580676  .00000202  00000+0  54148-3 0  9999
2 51625  87.8897 146.5538 0001444  95.2841 264.8451 13.10377588136814
ONEWEB-0422             
1 51626U 22012E   24345.42492484  .00000127  00000+0  29301-3 0  9999
2 51626  87.9094 116.1678 0001138  69.5749 290.5505 13.17648236140880
ONEWEB-0423             
1 51627U 22012F   24345.41816023  .00000081  00000+0  17569-3 0  9990
2 51627  87.9095 116.1728 0001589  95.4647 264.6666 13.17651800140772
ONEWEB-0425             
1 51628U 22012G   24345.43939256  .00000693  00000+0  19473-2 0  9991
2 51628  87.8890 146.5444 0001828  91.3339 268.7998 13.10378196136805
ONEWEB-0428             
1 51629U 22012H   24345.49582475 -.00000316  00000+0 -94260-3 0  9997
2 51629  87.8893 146.5515 0001206  90.3141 269.8124 13.10376116136777
ONEWEB-0431             
1 51630U 22012J   24345.46580971 -.00000007  00000+0 -56479-4 0  9993
2 51630  87.8882 146.5429 0000849 103.9997 256.1225 13.10371797136820
ONEWEB-0434             
1 51631U 22012K   24345.44271214  .00000672  00000+0  18883-2 0  9990
2 51631  87.8891 146.5740 0001468  86.4071 273.7224 13.10375880136802
